[{"OBJECT_NAME":"LYNK TOWER 6","OBJECT_ID":"2024-043AB","EPOCH":"2026-03-09T21:28:38.303328","MEAN_MOTION":15.29548678,"ECCENTRICITY":0.00097492,"INCLINATION":97.5426,"RA_OF_ASC_NODE":204.1954,"ARG_OF_PERICENTER":232.0253,"MEAN_ANOMALY":128.0107,"EPHEMERIS_TYPE":0,"CLASSIFICATION_TYPE":"U","NORAD_CAT_ID":59123,"ELEMENT_SET_NO":999,"REV_AT_EPOCH":11184,"BSTAR":0.00040142146,"MEAN_MOTION_DOT":0.0001144,"MEAN_MOTION_DDOT":0},{"OBJECT_NAME":"STARLINK-31874","OBJECT_ID":"2024-150W","EPOCH":"2026-03-09T23:13:03.701280","MEAN_MOTION":15.30185158,"ECCENTRICITY":9.554e-5,"INCLINATION":53.1615,"RA_OF_ASC_NODE":305.7533,"ARG_OF_PERICENTER":94.3535,"MEAN_ANOMALY":265.7575,"EPHEMERIS_TYPE":0,"CLASSIFICATION_TYPE":"U","NORAD_CAT_ID":60603,"ELEMENT_SET_NO":999,"REV_AT_EPOCH":8808,"BSTAR":5.0803153e-5,"MEAN_MOTION_DOT":1.145e-5,"MEAN_MOTION_DDOT":0}]
